[{"OBJECT_NAME":"STARLINK-1267","OBJECT_ID":"2020-019AA","EPOCH":"2026-02-03T02:42:58.869504","MEAN_MOTION":15.43612283,"ECCENTRICITY":0.0007903,"INCLINATION":53.0549,"RA_OF_ASC_NODE":292.0717,"ARG_OF_PERICENTER":113.8163,"MEAN_ANOMALY":246.3672,"EPHEMERIS_TYPE":0,"CLASSIFICATION_TYPE":"U","NORAD_CAT_ID":45384,"ELEMENT_SET_NO":999,"REV_AT_EPOCH":32493,"BSTAR":0.001772904,"MEAN_MOTION_DOT":0.00081538,"MEAN_MOTION_DDOT":0},{"OBJECT_NAME":"STARLINK-1272","OBJECT_ID":"2020-019AC","EPOCH":"2026-02-02T15:40:53.016096","MEAN_MOTION":15.49062357,"ECCENTRICITY":0.00075651,"INCLINATION":53.0474,"RA_OF_ASC_NODE":278.6115,"ARG_OF_PERICENTER":79.2261,"MEAN_ANOMALY":280.9597,"EPHEMERIS_TYPE":0,"CLASSIFICATION_TYPE":"U","NORAD_CAT_ID":45386,"ELEMENT_SET_NO":999,"REV_AT_EPOCH":32508,"BSTAR":0.0016393311,"MEAN_MOTION_DOT":0.00091091,"MEAN_MOTION_DDOT":0},{"OBJECT_NAME":"STARLINK-1274","OBJECT_ID":"2020-019AD","EPOCH":"2026-02-03T01:01:02.472672","MEAN_MOTION":15.421123,"ECCENTRICITY":0.00098316,"INCLINATION":53.0303,"RA_OF_ASC_NODE":267.9402,"ARG_OF_PERICENTER":114.4125,"MEAN_ANOMALY":245.7906,"EPHEMERIS_TYPE":0,"CLASSIFICATION_TYPE":"U","NORAD_CAT_ID":45387,"ELEMENT_SET_NO":999,"REV_AT_EPOCH":32526,"BSTAR":0.0017996675,"MEAN_MOTION_DOT":0.00078709,"MEAN_MOTION_DDOT":0},{"OBJECT_NAME":"STARLINK-1280","OBJECT_ID":"2020-019AE","EPOCH":"2026-02-03T02:21:51.759936","MEAN_MOTION":15.57875466,"ECCENTRICITY":0.00073925,"INCLINATION":53.0477,"RA_OF_ASC_NODE":291.4921,"ARG_OF_PERICENTER":78.2976,"MEAN_ANOMALY":281.8865,"EPHEMERIS_TYPE":0,"CLASSIFICATION_TYPE":"U","NORAD_CAT_ID":45388,"ELEMENT_SET_NO":999,"REV_AT_EPOCH":32493,"BSTAR":0.0013462509,"MEAN_MOTION_DOT":0.00103178,"MEAN_MOTION_DDOT":0},{"OBJECT_NAME":"STARLINK-1283","OBJECT_ID":"2020-019AF","EPOCH":"2026-02-03T02:06:55.802304","MEAN_MOTION":15.48910467,"ECCENTRICITY":0.00127119,"INCLINATION":53.048,"RA_OF_ASC_NODE":276.6859,"ARG_OF_PERICENTER":110.5986,"MEAN_ANOMALY":249.6386,"EPHEMERIS_TYPE":0,"CLASSIFICATION_TYPE":"U","NORAD_CAT_ID":45389,"ELEMENT_SET_NO":999,"REV_AT_EPOCH":32515,"BSTAR":0.0015600654,"MEAN_MOTION_DOT":0.0008632,"MEAN_MOTION_DDOT":0},{"OBJECT_NAME":"STARLINK-1284","OBJECT_ID":"2020-019AG","EPOCH":"2026-02-02T02:47:53.985120","MEAN_MOTION":15.45401909,"ECCENTRICITY":0.00030896,"INCLINATION":53.0542,"RA_OF_ASC_NODE":301.305,"ARG_OF_PERICENTER":105.3202,"MEAN_ANOMALY":254.8146,"EPHEMERIS_TYPE":0,"CLASSIFICATION_TYPE":"U","NORAD_CAT_ID":45390,"ELEMENT_SET_NO":999,"REV_AT_EPOCH":32471,"BSTAR":0.0015806688,"MEAN_MOTION_DOT":0.00077116,"MEAN_MOTION_DDOT":0},{"OBJECT_NAME":"STARLINK-1297","OBJECT_ID":"2020-019AM","EPOCH":"2026-02-03T06:32:55.819392","MEAN_MOTION":15.47407569,"ECCENTRICITY":0.00027106,"INCLINATION":53.0522,"RA_OF_ASC_NODE":296.0196,"ARG_OF_PERICENTER":116.649,"MEAN_ANOMALY":243.4795,"EPHEMERIS_TYPE":0,"CLASSIFICATION_TYPE":"U","NORAD_CAT_ID":45395,"ELEMENT_SET_NO":999,"REV_AT_EPOCH":32407,"BSTAR":0.0015897945,"MEAN_MOTION_DOT":0.00083196,"MEAN_MOTION_DDOT":0},{"OBJECT_NAME":"STARLINK-1307","OBJECT_ID":"2020-019AP","EPOCH":"2026-02-03T02:11:32.249472","MEAN_MOTION":15.45735149,"ECCENTRICITY":0.00014898,"INCLINATION":53.0564,"RA_OF_ASC_NODE":296.4023,"ARG_OF_PERICENTER":119.6572,"MEAN_ANOMALY":240.4583,"EPHEMERIS_TYPE":0,"CLASSIFICATION_TYPE":"U","NORAD_CAT_ID":45397,"ELEMENT_SET_NO":999,"REV_AT_EPOCH":32469,"BSTAR":0.00044680181,"MEAN_MOTION_DOT":0.0002158,"MEAN_MOTION_DDOT":0},{"OBJECT_NAME":"STARLINK-1255","OBJECT_ID":"2020-019AR","EPOCH":"2026-02-02T09:13:57.189216","MEAN_MOTION":15.45083659,"ECCENTRICITY":0.00071405,"INCLINATION":53.0449,"RA_OF_ASC_NODE":271.7946,"ARG_OF_PERICENTER":116.1572,"MEAN_ANOMALY":244.0169,"EPHEMERIS_TYPE":0,"CLASSIFICATION_TYPE":"U","NORAD_CAT_ID":45399,"ELEMENT_SET_NO":999,"REV_AT_EPOCH":32496,"BSTAR":0.0016794062,"MEAN_MOTION_DOT":0.00081168,"MEAN_MOTION_DDOT":0},{"OBJECT_NAME":"STARLINK-1260","OBJECT_ID":"2020-019AW","EPOCH":"2026-02-03T03:28:16.052736","MEAN_MOTION":15.29370216,"ECCENTRICITY":0.00014637,"INCLINATION":53.1544,"RA_OF_ASC_NODE":289.6826,"ARG_OF_PERICENTER":81.089,"MEAN_ANOMALY":279.0276,"EPHEMERIS_TYPE":0,"CLASSIFICATION_TYPE":"U","NORAD_CAT_ID":45404,"ELEMENT_SET_NO":999,"REV_AT_EPOCH":32468,"BSTAR":0.00034957654,"MEAN_MOTION_DOT":9.749e-5,"MEAN_MOTION_DDOT":0},{"OBJECT_NAME":"STARLINK-1263","OBJECT_ID":"2020-019AX","EPOCH":"2026-02-02T03:38:06.535392","MEAN_MOTION":15.29366315,"ECCENTRICITY":0.00015095,"INCLINATION":53.155,"RA_OF_ASC_NODE":294.3056,"ARG_OF_PERICENTER":96.0518,"MEAN_ANOMALY":264.0655,"EPHEMERIS_TYPE":0,"CLASSIFICATION_TYPE":"U","NORAD_CAT_ID":45405,"ELEMENT_SET_NO":999,"REV_AT_EPOCH":32453,"BSTAR":0.00014173114,"MEAN_MOTION_DOT":3.737e-5,"MEAN_MOTION_DDOT":0},{"OBJECT_NAME":"STARLINK-1265","OBJECT_ID":"2020-019AY","EPOCH":"2026-02-03T01:56:11.750784","MEAN_MOTION":15.2932959,"ECCENTRICITY":0.00015027,"INCLINATION":53.1561,"RA_OF_ASC_NODE":290.0657,"ARG_OF_PERICENTER":97.0707,"MEAN_ANOMALY":263.0465,"EPHEMERIS_TYPE":0,"CLASSIFICATION_TYPE":"U","NORAD_CAT_ID":45406,"ELEMENT_SET_NO":999,"REV_AT_EPOCH":32467,"BSTAR":0.00020913146,"MEAN_MOTION_DOT":5.678e-5,"MEAN_MOTION_DDOT":0},{"OBJECT_NAME":"STARLINK-1278","OBJECT_ID":"2020-019BA","EPOCH":"2026-02-03T08:00:03.000384","MEAN_MOTION":15.48967995,"ECCENTRICITY":0.00057711,"INCLINATION":53.0487,"RA_OF_ASC_NODE":295.8402,"ARG_OF_PERICENTER":79.9661,"MEAN_ANOMALY":261.3723,"EPHEMERIS_TYPE":0,"CLASSIFICATION_TYPE":"U","NORAD_CAT_ID":45408,"ELEMENT_SET_NO":999,"REV_AT_EPOCH":585,"BSTAR":0.00138308,"MEAN_MOTION_DOT":0.0007635,"MEAN_MOTION_DDOT":0},{"OBJECT_NAME":"STARLINK-1296","OBJECT_ID":"2020-019BE","EPOCH":"2026-02-03T00:00:02.000160","MEAN_MOTION":15.29348581,"ECCENTRICITY":0.00020346,"INCLINATION":53.1548,"RA_OF_ASC_NODE":290.3702,"ARG_OF_PERICENTER":70.3162,"MEAN_ANOMALY":225.5772,"EPHEMERIS_TYPE":0,"CLASSIFICATION_TYPE":"U","NORAD_CAT_ID":45412,"ELEMENT_SET_NO":999,"REV_AT_EPOCH":574,"BSTAR":0.00025048067,"MEAN_MOTION_DOT":6.877e-5,"MEAN_MOTION_DDOT":0},{"OBJECT_NAME":"STARLINK-1298","OBJECT_ID":"2020-019BF","EPOCH":"2026-02-03T08:00:03.000384","MEAN_MOTION":15.79132015,"ECCENTRICITY":0.00063965,"INCLINATION":53.0404,"RA_OF_ASC_NODE":228.1979,"ARG_OF_PERICENTER":182.5473,"MEAN_ANOMALY":9.5168,"EPHEMERIS_TYPE":0,"CLASSIFICATION_TYPE":"U","NORAD_CAT_ID":45413,"ELEMENT_SET_NO":999,"REV_AT_EPOCH":597,"BSTAR":0.0014641875,"MEAN_MOTION_DOT":0.00275202,"MEAN_MOTION_DDOT":0},{"OBJECT_NAME":"STARLINK-1309","OBJECT_ID":"2020-019BG","EPOCH":"2026-02-03T08:00:03.000384","MEAN_MOTION":15.40770366,"ECCENTRICITY":0.0001826,"INCLINATION":53.0695,"RA_OF_ASC_NODE":288.6397,"ARG_OF_PERICENTER":67.7386,"MEAN_ANOMALY":217.8858,"EPHEMERIS_TYPE":0,"CLASSIFICATION_TYPE":"U","NORAD_CAT_ID":45414,"ELEMENT_SET_NO":999,"REV_AT_EPOCH":569,"BSTAR":0.035528701,"MEAN_MOTION_DOT":0.01623012,"MEAN_MOTION_DDOT":0}]
