STARLINK-1267           
1 45384U 20019AA  26034.11318136  .00081538  00000+0  17729-2 0  9997
2 45384  53.0549 292.0717 0007903 113.8163 246.3672 15.43612283324938
STARLINK-1272           
1 45386U 20019AC  26033.65339139  .00091091  00000+0  16393-2 0  9994
2 45386  53.0474 278.6115 0007565  79.2261 280.9597 15.49062357325081
STARLINK-1274           
1 45387U 20019AD  26034.04238973  .00078709  00000+0  17997-2 0  9995
2 45387  53.0303 267.9402 0009831 114.4125 245.7906 15.42112300325262
STARLINK-1280           
1 45388U 20019AE  26034.09851574  .00103178  00000+0  13463-2 0  9992
2 45388  53.0477 291.4921 0007392  78.2976 281.8865 15.57875466324937
STARLINK-1283           
1 45389U 20019AF  26034.08814586  .00086320  00000+0  15601-2 0  9999
2 45389  53.0480 276.6859 0012711 110.5986 249.6386 15.48910467325155
STARLINK-1284           
1 45390U 20019AG  26033.11659705  .00077116  00000+0  15807-2 0  9995
2 45390  53.0542 301.3050 0003089 105.3202 254.8146 15.45401909324712
STARLINK-1297           
1 45395U 20019AM  26034.27286828  .00083196  00000+0  15898-2 0  9995
2 45395  53.0522 296.0196 0002710 116.6490 243.4795 15.47407569324073
STARLINK-1307           
1 45397U 20019AP  26034.09134548  .00021580  00000+0  44680-3 0  9999
2 45397  53.0564 296.4023 0001489 119.6572 240.4583 15.45735149324696
STARLINK-1255           
1 45399U 20019AR  26033.38468969  .00081168  00000+0  16794-2 0  9991
2 45399  53.0449 271.7946 0007140 116.1572 244.0169 15.45083659324964
STARLINK-1260           
1 45404U 20019AW  26034.14463024  .00009749  00000+0  34958-3 0  9998
2 45404  53.1544 289.6826 0001463  81.0890 279.0276 15.29370216324684
STARLINK-1263           
1 45405U 20019AX  26033.15146453  .00003737  00000+0  14173-3 0  9991
2 45405  53.1550 294.3056 0001509  96.0518 264.0655 15.29366315324538
STARLINK-1265           
1 45406U 20019AY  26034.08069156  .00005678  00000+0  20913-3 0  9994
2 45406  53.1561 290.0657 0001502  97.0707 263.0465 15.29329590324672
STARLINK-1278           
1 45408U 20019BA  26034.33336806  .00076350  00000+0  13831-2 0  9998
2 45408  53.0487 295.8402 0005771  79.9661 261.3723 15.48967995  5853
STARLINK-1296           
1 45412U 20019BE  26034.00002315  .00006877  00000+0  25048-3 0  9993
2 45412  53.1548 290.3702 0002034  70.3162 225.5772 15.29348581  5747
STARLINK-1298           
1 45413U 20019BF  26034.33336806  .00275202  00000+0  14642-2 0  9992
2 45413  53.0404 228.1979 0006396 182.5473   9.5168 15.79132015  5971
STARLINK-1309           
1 45414U 20019BG  26034.33336806  .01623012  00000+0  35529-1 0  9996
2 45414  53.0695 288.6397 0001826  67.7386 217.8858 15.40770366  5693
